ONEWEB-0020             
1 45133U 20008C   25045.50356028 -.00000616  00000+0 -18011-2 0  9998
2 45133  87.8904 133.4547 0001725  98.9235 261.2088 13.10374565244475
ONEWEB-0021             
1 45134U 20008D   25045.51851180  .00000210  00000+0  56579-3 0  9999
2 45134  87.8911 133.4783 0001908 110.0943 250.0389 13.10376351244780
ONEWEB-0023             
1 45136U 20008F   25045.52929902  .00000591  00000+0  16572-2 0  9990
2 45136  87.8907 133.4623 0001546 105.0724 255.0574 13.10374365244211
ONEWEB-0024             
1 45137U 20008G   25045.65461722 -.00000557  00000+0 -16325-2 0  9996
2 45137  87.8896 133.4011 0001921 107.3474 252.7864 13.10373905244398
ONEWEB-0025             
1 45138U 20008H   25045.52017245  .00000328  00000+0  90436-3 0  9990
2 45138  87.8897 133.4284 0001656 123.2354 236.8932 13.10376013244708
ONEWEB-0028             
1 45140U 20008K   25045.42467913  .00000494  00000+0  13570-2 0  9990
2 45140  87.8874 118.3258 0001690 122.3641 237.7651 13.11414087244697
ONEWEB-0032             
1 45141U 20008L   25045.53511534  .00000784  00000+0  22085-2 0  9995
2 45141  87.8896 133.4755 0001792 112.2981 247.8336 13.10373131244437
